[{"OBJECT_NAME":"ION SCV-021","OBJECT_ID":"2025-276DT","EPOCH":"2026-03-09T17:54:19.585728","MEAN_MOTION":14.97286526,"ECCENTRICITY":0.00131375,"INCLINATION":97.5322,"RA_OF_ASC_NODE":142.8125,"ARG_OF_PERICENTER":96.8695,"MEAN_ANOMALY":263.4023,"EPHEMERIS_TYPE":0,"CLASSIFICATION_TYPE":"U","NORAD_CAT_ID":67483,"ELEMENT_SET_NO":999,"REV_AT_EPOCH":772,"BSTAR":0.00021144867,"MEAN_MOTION_DOT":2.399e-5,"MEAN_MOTION_DDOT":0},{"OBJECT_NAME":"CZ-6A DEB","OBJECT_ID":"2024-140CA","EPOCH":"2026-03-09T15:46:26.997888","MEAN_MOTION":14.75225257,"ECCENTRICITY":0.02134198,"INCLINATION":89.2806,"RA_OF_ASC_NODE":301.2839,"ARG_OF_PERICENTER":224.2273,"MEAN_ANOMALY":134.1722,"EPHEMERIS_TYPE":0,"CLASSIFICATION_TYPE":"U","NORAD_CAT_ID":60673,"ELEMENT_SET_NO":999,"REV_AT_EPOCH":8478,"BSTAR":0.00067489672,"MEAN_MOTION_DOT":6.643e-5,"MEAN_MOTION_DDOT":0}]
